[
    {
        "Altitude(m)": 617710.7047545544,
        "Argument of Periapsis(deg)": 0.0,
        "Eccentricity": 0.0,
        "Inclination(deg)": 60.0,
        "Latitude(deg)": -41.1028363632676,
        "Longitude(deg)": -75.03332619459981,
        "Mean Anomaly(deg)": -49.09089999999996,
        "RAAN(deg)": 55.00000000000001,
        "Satellite Name": "Test1 261",
        "Satellite Number": 261,
        "Semi-Major Axis(m)": 6980739.136638005,
        "Time(s)": 0
    },
    {
        "Altitude(m)": 617518.0029285274,
        "Argument of Periapsis(deg)": 0.00010418945913296404,
        "Eccentricity": 0.0,
        "Inclination(deg)": 60.0,
        "Latitude(deg)": -40.637042890220066,
        "Longitude(deg)": -74.53653200050275,
        "Mean Anomaly(deg)": -48.470793854538066,
        "RAAN(deg)": 54.999579950860266,
        "Satellite Name": "Test1 261",
        "Satellite Number": 261,
        "Semi-Major Axis(m)": 6980739.136638005,
        "Time(s)": 10
    },
    {
        "Altitude(m)": 617324.3239806931,
        "Argument of Periapsis(deg)": 0.0002083789182659281,
        "Eccentricity": 0.0,
        "Inclination(deg)": 60.0,
        "Latitude(deg)": -40.16872408949169,
        "Longitude(deg)": -74.047165715307,
        "Mean Anomaly(deg)": -47.85068770907628,
        "RAAN(deg)": 54.999159901720525,
        "Satellite Name": "Test1 261",
        "Satellite Number": 261,
        "Semi-Major Axis(m)": 6980739.136638005,
        "Time(s)": 20
    },
    {
        "Altitude(m)": 617129.7418919685,
        "Argument of Periapsis(deg)": 0.00031256837739889213,
        "Eccentricity": 0.0,
        "Inclination(deg)": 60.0,
        "Latitude(deg)": -39.69795309331615,
        "Longitude(deg)": -73.56504288348656,
        "Mean Anomaly(deg)": -47.230581563614436,
        "RAAN(deg)": 54.99873985258077,
        "Satellite Name": "Test1 261",
        "Satellite Number": 261,
        "Semi-Major Axis(m)": 6980739.136638005,
        "Time(s)": 30
    },
    {
        "Altitude(m)": 616934.330891986,
        "Argument of Periapsis(deg)": 0.0004167578365318562,
        "Eccentricity": 0.0,
        "Inclination(deg)": 60.0,
        "Latitude(deg)": -39.224800811238204,
        "Longitude(deg)": -73.08998202776763,
        "Mean Anomaly(deg)": -46.61047541815265,
        "RAAN(deg)": 54.99831980344103,
        "Satellite Name": "Test1 261",
        "Satellite Number": 261,
        "Semi-Major Axis(m)": 6980739.136638005,
        "Time(s)": 40
    },
    {
        "Altitude(m)": 616738.1654266589,
        "Argument of Periapsis(deg)": 0.0005209472956648203,
        "Eccentricity": 0.0,
        "Inclination(deg)": 60.0,
        "Latitude(deg)": -38.749336002510255,
        "Longitude(deg)": -72.62180567232527,
        "Mean Anomaly(deg)": -45.9903692726908,
        "RAAN(deg)": 54.99789975430129,
        "Satellite Name": "Test1 261",
        "Satellite Number": 261,
        "Semi-Major Axis(m)": 6980739.136638005,
        "Time(s)": 50
    },
    {
        "Altitude(m)": 616541.320125577,
        "Argument of Periapsis(deg)": 0.0006251367547977843,
        "Eccentricity": 0.0,
        "Inclination(deg)": 60.0,
        "Latitude(deg)": -38.27162534700483,
        "Longitude(deg)": -72.1603398422221,
        "Mean Anomaly(deg)": -45.37026312722896,
        "RAAN(deg)": 54.99747970516154,
        "Satellite Name": "Test1 261",
        "Satellite Number": 261,
        "Semi-Major Axis(m)": 6980739.136638005,
        "Time(s)": 60
    },
    {
        "Altitude(m)": 616343.8697693225,
        "Argument of Periapsis(deg)": 0.0007293262139307483,
        "Eccentricity": 0.0,
        "Inclination(deg)": 60.0,
        "Latitude(deg)": -37.79173351457208,
        "Longitude(deg)": -71.70541355309183,
        "Mean Anomaly(deg)": -44.75015698176712,
        "RAAN(deg)": 54.9970596560218,
        "Satellite Name": "Test1 261",
        "Satellite Number": 261,
        "Semi-Major Axis(m)": 6980739.136638005,
        "Time(s)": 70
    },
    {
        "Altitude(m)": 616145.8892566927,
        "Argument of Periapsis(deg)": 0.0008335156730637124,
        "Eccentricity": 0.0,
        "Inclination(deg)": 60.0,
        "Latitude(deg)": -37.309723232788315,
        "Longitude(deg)": -71.25685980498365,
        "Mean Anomaly(deg)": -44.13005083630533,
        "RAAN(deg)": 54.996639606882056,
        "Satellite Name": "Test1 261",
        "Satellite Number": 261,
        "Semi-Major Axis(m)": 6980739.136638005,
        "Time(s)": 80
    },
    {
        "Altitude(m)": 615947.4535718506,
        "Argument of Periapsis(deg)": 0.0009377051321966765,
        "Eccentricity": 0.0,
        "Inclination(deg)": 60.0,
        "Latitude(deg)": -36.825655353052234,
        "Longitude(deg)": -70.81451505557432,
        "Mean Anomaly(deg)": -43.50994469084349,
        "RAAN(deg)": 54.996219557742315,
        "Satellite Name": "Test1 261",
        "Satellite Number": 261,
        "Semi-Major Axis(m)": 6980739.136638005,
        "Time(s)": 90
    },
    {
        "Altitude(m)": 615748.6377513941,
        "Argument of Periapsis(deg)": 0.0010418945913296407,
        "Eccentricity": 0.0,
        "Inclination(deg)": 60.0,
        "Latitude(deg)": -36.339588914999915,
        "Longitude(deg)": -70.37821868650313,
        "Mean Anomaly(deg)": -42.88983854538161,
        "RAAN(deg)": 54.99579950860257,
        "Satellite Name": "Test1 261",
        "Satellite Number": 261,
        "Semi-Major Axis(m)": 6980739.136638005,
        "Time(s)": 100
    },
    {
        "Altitude(m)": 615549.5168514277,
        "Argument of Periapsis(deg)": 0.0011460840504626045,
        "Eccentricity": 0.0,
        "Inclination(deg)": 60.0,
        "Latitude(deg)": -35.85158120921908,
        "Longitude(deg)": -69.9478139765133,
        "Mean Anomaly(deg)": -42.26973239991982,
        "RAAN(deg)": 54.99537945946283,
        "Satellite Name": "Test1 261",
        "Satellite Number": 261,
        "Semi-Major Axis(m)": 6980739.136638005,
        "Time(s)": 110
    },
    {
        "Altitude(m)": 615350.1659145616,
        "Argument of Periapsis(deg)": 0.0012502735095955685,
        "Eccentricity": 0.0,
        "Inclination(deg)": 60.0,
        "Latitude(deg)": -35.361687838250944,
        "Longitude(deg)": -69.5231475563866,
        "Mean Anomaly(deg)": -41.64962625445798,
        "RAAN(deg)": 54.99495941032309,
        "Satellite Name": "Test1 261",
        "Satellite Number": 261,
        "Semi-Major Axis(m)": 6980739.136638005,
        "Time(s)": 120
    },
    {
        "Altitude(m)": 615150.6599368965,
        "Argument of Periapsis(deg)": 0.0013544629687285324,
        "Eccentricity": 0.0,
        "Inclination(deg)": 60.0,
        "Latitude(deg)": -34.869962775879145,
        "Longitude(deg)": -69.10406885922436,
        "Mean Anomaly(deg)": -41.02952010899619,
        "RAAN(deg)": 54.99453936118335,
        "Satellite Name": "Test1 261",
        "Satellite Number": 261,
        "Semi-Major Axis(m)": 6980739.136638005,
        "Time(s)": 130
    },
    {
        "Altitude(m)": 614951.0738350423,
        "Argument of Periapsis(deg)": 0.0014586524278614966,
        "Eccentricity": 0.0,
        "Inclination(deg)": 60.0,
        "Latitude(deg)": -34.376458424709845,
        "Longitude(deg)": -68.69043107956406,
        "Mean Anomaly(deg)": -40.4094139635343,
        "RAAN(deg)": 54.99411931204361,
        "Satellite Name": "Test1 261",
        "Satellite Number": 261,
        "Semi-Major Axis(m)": 6980739.136638005,
        "Time(s)": 140
    },
    {
        "Altitude(m)": 614751.4824131171,
        "Argument of Periapsis(deg)": 0.0015628418869944607,
        "Eccentricity": 0.0,
        "Inclination(deg)": 60.0,
        "Latitude(deg)": -33.88122567205418,
        "Longitude(deg)": -68.28209061614449,
        "Mean Anomaly(deg)": -39.789307818072494,
        "RAAN(deg)": 54.99369926290386,
        "Satellite Name": "Test1 261",
        "Satellite Number": 261,
        "Semi-Major Axis(m)": 6980739.136638005,
        "Time(s)": 150
    },
    {
        "Altitude(m)": 614551.9603298147,
        "Argument of Periapsis(deg)": 0.0016670313461274247,
        "Eccentricity": 0.0,
        "Inclination(deg)": 60.0,
        "Latitude(deg)": -33.384313944128714,
        "Longitude(deg)": -67.87890651170255,
        "Mean Anomaly(deg)": -39.169201672610654,
        "RAAN(deg)": 54.99327921376412,
        "Satellite Name": "Test1 261",
        "Satellite Number": 261,
        "Semi-Major Axis(m)": 6980739.136638005,
        "Time(s)": 160
    },
    {
        "Altitude(m)": 614352.5820654685,
        "Argument of Periapsis(deg)": 0.0017712208052603888,
        "Eccentricity": 0.0,
        "Inclination(deg)": 60.0,
        "Latitude(deg)": -32.88577125859717,
        "Longitude(deg)": -67.48074140314183,
        "Mean Anomaly(deg)": -38.549095527148864,
        "RAAN(deg)": 54.99285916462438,
        "Satellite Name": "Test1 261",
        "Satellite Number": 261,
        "Semi-Major Axis(m)": 6980739.136638005,
        "Time(s)": 170
    },
    {
        "Altitude(m)": 614153.4218892336,
        "Argument of Periapsis(deg)": 0.001875410264393353,
        "Eccentricity": 0.0,
        "Inclination(deg)": 60.0,
        "Latitude(deg)": -32.38564427547543,
        "Longitude(deg)": -67.08746095673995,
        "Mean Anomaly(deg)": -37.92898938168697,
        "RAAN(deg)": 54.992439115484636,
        "Satellite Name": "Test1 261",
        "Satellite Number": 261,
        "Semi-Major Axis(m)": 6980739.136638005,
        "Time(s)": 180
    },
    {
        "Altitude(m)": 613954.5538262986,
        "Argument of Periapsis(deg)": 0.0019795997235263173,
        "Eccentricity": 0.0,
        "Inclination(deg)": 60.0,
        "Latitude(deg)": -31.883978346430364,
        "Longitude(deg)": -66.69893330164965,
        "Mean Anomaly(deg)": -37.30888323622519,
        "RAAN(deg)": 54.992019066344895,
        "Satellite Name": "Test1 261",
        "Satellite Number": 261,
        "Semi-Major Axis(m)": 6980739.136638005,
        "Time(s)": 190
    }
]